COSMOS 2433 (720)       
1 32275U 07052A   25180.97206591 -.00000070  00000+0  00000+0 0  9994
2 32275  65.7704 327.7661 0002624 200.6512 159.3322  2.13104195137554
COSMOS 2432 (719)       
1 32276U 07052B   25182.16517863 -.00000071  00000+0  00000+0 0  9996
2 32276  65.7854 327.8472 0007757 329.0288 171.3180  2.13103236137618
COSMOS 2434 (721)       
1 32393U 07065A   25181.11775470  .00000050  00000+0  00000+0 0  9990
2 32393  64.3165 203.7924 0000718 321.4195  41.6652  2.13101443136277
COSMOS 2436 (723)       
1 32395U 07065C   25181.52260687  .00000054  00000+0  00000+0 0  9990
2 32395  64.3251 203.8471 0016658 352.8454  94.6368  2.13100282136237
COSMOS 2456 (730)       
1 36111U 09070A   25182.46176390 -.00000041  00000+0  00000+0 0  9996
2 36111  64.8043  82.9555 0004180 330.4617 139.7115  2.13103785120998
COSMOS 2457 (733)       
1 36112U 09070B   25181.38987926 -.00000033  00000+0  00000+0 0  9993
2 36112  64.7890  82.8429 0003349 135.1897   3.3339  2.13101256120932
COSMOS 2460 (732)       
1 36402U 10007C   25180.74026916 -.00000070  00000+0  00000+0 0  9990
2 36402  65.6197 326.3721 0001728 117.2640 239.9018  2.13106285119218
COSMOS 2476 (744)       
1 37867U 11064A   25181.95952203 -.00000034  00000+0  00000+0 0  9991
2 37867  65.0693  84.7471 0022209 237.7935 116.8030  2.13101601106320
COSMOS 2477 (745)       
1 37868U 11064B   25182.44003360 -.00000038  00000+0  00000+0 0  9992
2 37868  65.0763  84.8067 0019340 238.9435 304.3503  2.13103130106273
COSMOS 2475 (743)       
1 37869U 11064C   25181.52496222 -.00000031  00000+0  00000+0 0  9997
2 37869  65.0827  84.8561 0024737 253.4630 264.5069  2.13101957106278
COSMOS 2485 (747)       
1 39155U 13019A   25182.37461250 -.00000037  00000+0  00000+0 0  9992
2 39155  65.2234  85.3952 0022602 233.3815 126.4483  2.13104678 94807
COSMOS 2492 (754)       
1 39620U 14012A   25181.39351215 -.00000070  00000+0  00000+0 0  9990
2 39620  65.4984 325.8719 0010602 323.0237  36.8981  2.13103273 87745
COSMOS 2500 (755)       
1 40001U 14032A   25181.09861609 -.00000070  00000+0  00000+0 0  9997
2 40001  65.4349 325.6572 0007354 187.6418 172.3417  2.13105947 85956
COSMOS 2501 (702K)      
1 40315U 14075A   25180.88691087  .00000049  00000+0  00000+0 0  9994
2 40315  63.6163 202.5685 0021850 211.9025 148.0100  2.13101478 82342
COSMOS 2514 (751)       
1 41330U 16008A   25181.33987244 -.00000071  00000+0  00000+0 0  9990
2 41330  65.2263 325.0626 0011041 200.1010 159.8509  2.13102665 73128
COSMOS 2522 (752)       
1 42939U 17055A   25181.64795537  .00000055  00000+0  00000+0 0  9996
2 42939  64.0779 203.8508 0010636 240.9800 118.9600  2.13101990 60486
COSMOS 2527 (756)       
1 43508U 18053A   25181.13893395 -.00000027  00000+0  00000+0 0  9993
2 43508  65.3815  85.6675 0007103 235.8372 124.1336  2.13102270 54779
COSMOS 2529 (757)       
1 43687U 18086A   25181.70607370  .00000055  00000+0  00000+0 0  9996
2 43687  64.2938 204.4635 0011918 257.8130 102.1011  2.13102130 51793
COSMOS 2534 (758)       
1 44299U 19030A   25181.18624238  .00000050  00000+0  00000+0 0  9995
2 44299  64.3669 204.4700 0013518 276.7705 178.7082  2.13102426 47413
COSMOS 2544 (759)       
1 44850U 19088A   25181.08333256 -.00000027  00000+0  00000+0 0  9992
2 44850  65.3687  85.4991 0012752 258.5372 101.3581  2.13102063 43210
COSMOS 2545 (760)       
1 45358U 20018A   25181.27966723 -.00000072  00000+0  00000+0 0  9993
2 45358  64.5632 324.7664 0008623 232.6452 127.2718  2.13102602 41165
COSMOS 2547 (705K)      
1 46805U 20075A   25181.46608080  .00000053  00000+0  00000+0 0  9992
2 46805  64.5974 204.2147 0009164 240.8055 119.1502  2.13100326 36415
COSMOS 2557 (706K)      
1 52984U 22075A   25181.16344147 -.00000073  00000+0  00000+0 0  9990
2 52984  64.5003 326.8662 0010717 275.6050  84.2677  2.13102240 23208
COSMOS 2559 (707K)      
1 54031U 22130A   25180.98220401 -.00000073  00000+0  00000+0 0  9992
2 54031  64.4730 326.9675 0012289 178.2505 181.7487  2.13101635 21187
COSMOS 2564 (761)       
1 54377U 22161A   25182.23478294  .00000062  00000+0  00000+0 0  9991
2 54377  64.7392 204.3620 0011909 225.1232 134.8279  2.13102151 20151
COSMOS 2569 (703K)      
1 57517U 23114A   25181.31080366 -.00000030  00000+0  00000+0 0  9992
2 57517  65.1010  84.5050 0010629 298.0142  61.9179  2.13103707 14761
COSMOS 2584 (704K)      
1 63130U 25042A   25181.19724521 -.00000029  00000+0  00000+0 0  9994
2 63130  64.8825  84.7866 0005987 222.1098 137.8832  2.13103936  2541
